{"type": "FeatureCollection", "features": [ {"type": "Feature", "properties": {"norad_id": 30613, "name": "FENGYUN 1C DEB", "group": "fengyun-1c-debris", "lat": 58.6544986015497, "lon": -47.09392300884867, "alt_km": 459.9930047694561, "timestamp": "2025-12-24T03:53:29.924660+00:00", "meta": {"OBJECT_NAME": "FENGYUN 1C DEB", "OBJECT_ID": "1999-025AMU", "EPOCH": "2025-12-23T00:29:43.822176", "MEAN_MOTION": 15.19224967, "ECCENTRICITY": 0.00615153, "INCLINATION": 98.3071, "RA_OF_ASC_NODE": 117.7716, "ARG_OF_PERICENTER": 132.368, "MEAN_ANOMALY": 228.2784, "EPHEMERIS_TYPE": 0, "CLASSIFICATION_TYPE": "U", "NORAD_CAT_ID": 30613, "ELEMENT_SET_NO": 999, "REV_AT_EPOCH": 99552, "BSTAR": 0.0046920363, "MEAN_MOTION_DOT": 0.00105146, "MEAN_MOTION_DDOT": 0}, "tle": {"line1": "1 30613U 99025AMU 25357.02064609  .00105146  00000+0  46920-2 0  9996", "line2": "2 30613  98.3071 117.7716 0061515 132.3680 228.2784 15.19224967995523"}}, "geometry": {"type": "Point", "coordinates": [-47.09392300884867, 58.6544986015497]}}, {"type": "Feature", "properties": {"norad_id": 30616, "name": "FENGYUN 1C DEB", "group": "fengyun-1c-debris", "lat": -70.71990186175485, "lon": 80.41021871251228, "alt_km": 980.1100731608931, "timestamp": "2025-12-24T03:53:29.924670+00:00", "meta": {"OBJECT_NAME": "FENGYUN 1C DEB", "OBJECT_ID": "1999-025AMX", "EPOCH": "2025-12-22T21:42:09.442080", "MEAN_MOTION": 13.36042902, "ECCENTRICITY": 0.0381448, "INCLINATION": 98.6405, "RA_OF_ASC_NODE": 53.5777, "ARG_OF_PERICENTER": 230.5054, "MEAN_ANOMALY": 126.1766, "EPHEMERIS_TYPE": 0, "CLASSIFICATION_TYPE": "U", "NORAD_CAT_ID": 30616, "ELEMENT_SET_NO": 999, "REV_AT_EPOCH": 91836, "BSTAR": 0.0017178, "MEAN_MOTION_DOT": 1.297e-05, "MEAN_MOTION_DDOT": 0}, "tle": {"line1": "1 30616U 99025AMX 25356.90427595  .00001297  00000+0  17178-2 0  9997", "line2": "2 30616  98.6405  53.5777 0381448 230.5054 126.1766 13.36042902918367"}}, "geometry": {"type": "Point", "coordinates": [80.41021871251228, -70.71990186175485]}}, {"type": "Feature", "properties": {"norad_id": 30619, "name": "FENGYUN 1C DEB", "group": "fengyun-1c-debris", "lat": -51.111307919410244, "lon": -169.65675158752305, "alt_km": 897.025775574929, "timestamp": "2025-12-24T03:53:29.924681+00:00", "meta": {"OBJECT_NAME": "FENGYUN 1C DEB", "OBJECT_ID": "1999-025ANA", "EPOCH": "2025-12-23T00:09:27.617760", "MEAN_MOTION": 14.41119801, "ECCENTRICITY": 0.02154018, "INCLINATION": 98.2949, "RA_OF_ASC_NODE": 19.6416, "ARG_OF_PERICENTER": 27.5683, "MEAN_ANOMALY": 333.6737, "EPHEMERIS_TYPE": 0, "CLASSIFICATION_TYPE": "U", "NORAD_CAT_ID": 30619, "ELEMENT_SET_NO": 999, "REV_AT_EPOCH": 99097, "BSTAR": 0.00029234044, "MEAN_MOTION_DOT": 1.191e-05, "MEAN_MOTION_DDOT": 0}, "tle": {"line1": "1 30619U 99025ANA 25357.00656965  .00001191  00000+0  29234-3 0  9997", "line2": "2 30619  98.2949  19.6416 0215401  27.5683 333.6737 14.41119801990979"}}, "geometry": {"type": "Point", "coordinates": [-169.65675158752305, -51.111307919410244]}}, {"type": "Feature", "properties": {"norad_id": 30621, "name": "FENGYUN 1C DEB", "group": "fengyun-1c-debris", "lat": 52.882282043813795, "lon": 132.76837534755202, "alt_km": 959.6016999235208, "timestamp": "2025-12-24T03:53:29.924692+00:00", "meta": {"OBJECT_NAME": "FENGYUN 1C DEB", "OBJECT_ID": "1999-025ANC", "EPOCH": "2025-12-22T07:33:01.039104", "MEAN_MOTION": 14.03884663, "ECCENTRICITY": 0.01366765, "INCLINATION": 98.698, "RA_OF_ASC_NODE": 299.3294, "ARG_OF_PERICENTER": 279.9015, "MEAN_ANOMALY": 234.7066, "EPHEMERIS_TYPE": 0, "CLASSIFICATION_TYPE": "U", "NORAD_CAT_ID": 30621, "ELEMENT_SET_NO": 999, "REV_AT_EPOCH": 95724, "BSTAR": 0.0020240679, "MEAN_MOTION_DOT": 3.427e-05, "MEAN_MOTION_DDOT": 0}, "tle": {"line1": "1 30621U 99025ANC 25356.31459536  .00003427  00000+0  20241-2 0  9990", "line2": "2 30621  98.6980 299.3294 0136676 279.9015 234.7066 14.03884663957242"}}, "geometry": {"type": "Point", "coordinates": [132.76837534755202, 52.882282043813795]}}, {"type": "Feature", "properties": {"norad_id": 30622, "name": "FENGYUN 1C DEB", "group": "fengyun-1c-debris", "lat": 62.81230263384481, "lon": -9.53901716462669, "alt_km": 772.7831132687879, "timestamp": "2025-12-24T03:53:29.924702+00:00", "meta": {"OBJECT_NAME": "FENGYUN 1C DEB", "OBJECT_ID": "1999-025AND", "EPOCH": "2025-12-23T20:00:58.826016", "MEAN_MOTION": 14.31388151, "ECCENTRICITY": 0.0072428, "INCLINATION": 101.0013, "RA_OF_ASC_NODE": 12.3003, "ARG_OF_PERICENTER": 344.4391, "MEAN_ANOMALY": 189.7638, "EPHEMERIS_TYPE": 0, "CLASSIFICATION_TYPE": "U", "NORAD_CAT_ID": 30622, "ELEMENT_SET_NO": 999, "REV_AT_EPOCH": 68956, "BSTAR": 0.003054, "MEAN_MOTION_DOT": 8.28e-05, "MEAN_MOTION_DDOT": 0}, "tle": {"line1": "1 30622U 99025AND 25357.83401419  .00008280  00000+0  30540-2 0  9991", "line2": "2 30622 101.0013  12.3003 0072428 344.4391 189.7638 14.31388151689562"}}, "geometry": {"type": "Point", "coordinates": [-9.53901716462669, 62.81230263384481]}}, {"type": "Feature", "properties": {"norad_id": 30623, "name": "FENGYUN 1C DEB", "group": "fengyun-1c-debris", "lat": 31.237952103703694, "lon": 169.85174112248887, "alt_km": 936.8565122437931, "timestamp": "2025-12-24T03:53:29.924712+00:00", "meta": {"OBJECT_NAME": "FENGYUN 1C DEB", "OBJECT_ID": "1999-025ANE", "EPOCH": "2025-12-21T18:01:25.554144", "MEAN_MOTION": 13.29345474, "ECCENTRICITY": 0.04037504, "INCLINATION": 98.823, "RA_OF_ASC_NODE": 173.1896, "ARG_OF_PERICENTER": 85.5664, "MEAN_ANOMALY": 296.5298, "EPHEMERIS_TYPE": 0, "CLASSIFICATION_TYPE": "U", "NORAD_CAT_ID": 30623, "ELEMENT_SET_NO": 999, "REV_AT_EPOCH": 91336, "BSTAR": 0.00046323769, "MEAN_MOTION_DOT": 3.03e-06, "MEAN_MOTION_DDOT": 0}, "tle": {"line1": "1 30623U 99025ANE 25355.75099021  .00000303  00000+0  46324-3 0  9999", "line2": "2 30623  98.8230 173.1896 0403750  85.5664 296.5298 13.29345474913369"}}, "geometry": {"type": "Point", "coordinates": [169.85174112248887, 31.237952103703694]}}, {"type": "Feature", "properties": {"norad_id": 30624, "name": "FENGYUN 1C DEB", "group": "fengyun-1c-debris", "lat": -8.433984414119134, "lon": -100.30271586983457, "alt_km": 677.0822490104629, "timestamp": "2025-12-24T03:53:29.924722+00:00", "meta": {"OBJECT_NAME": "FENGYUN 1C DEB", "OBJECT_ID": "1999-025ANF", "EPOCH": "2025-12-23T17:10:51.375360", "MEAN_MOTION": 14.62768117, "ECCENTRICITY": 0.002395, "INCLINATION": 98.8867, "RA_OF_ASC_NODE": 80.5465, "ARG_OF_PERICENTER": 238.8957, "MEAN_ANOMALY": 120.9892, "EPHEMERIS_TYPE": 0, "CLASSIFICATION_TYPE": "U", "NORAD_CAT_ID": 30624, "ELEMENT_SET_NO": 999, "REV_AT_EPOCH": 97656, "BSTAR": 0.004692, "MEAN_MOTION_DOT": 0.00024052, "MEAN_MOTION_DDOT": 0}, "tle": {"line1": "1 30624U 99025ANF 25357.71587240  .00024052  00000+0  46920-2 0  9991", "line2": "2 30624  98.8867  80.5465 0023950 238.8957 120.9892 14.62768117976569"}}, "geometry": {"type": "Point", "coordinates": [-100.30271586983457, -8.433984414119134]}}, {"type": "Feature", "properties": {"norad_id": 30625, "name": "FENGYUN 1C DEB", "group": "fengyun-1c-debris", "lat": 5.265558928640645, "lon": -46.196156255455215, "alt_km": 758.6244015459979, "timestamp": "2025-12-24T03:53:29.924733+00:00", "meta": {"OBJECT_NAME": "FENGYUN 1C DEB", "OBJECT_ID": "1999-025ANG", "EPOCH": "2025-12-22T20:13:15.565728", "MEAN_MOTION": 14.41747552, "ECCENTRICITY": 0.00482641, "INCLINATION": 98.9265, "RA_OF_ASC_NODE": 313.2551, "ARG_OF_PERICENTER": 272.7745, "MEAN_ANOMALY": 86.7919, "EPHEMERIS_TYPE": 0, "CLASSIFICATION_TYPE": "U", "NORAD_CAT_ID": 30625, "ELEMENT_SET_NO": 999, "REV_AT_EPOCH": 96838, "BSTAR": 0.0039136911, "MEAN_MOTION_DOT": 0.00012927, "MEAN_MOTION_DDOT": 0}, "tle": {"line1": "1 30625U 99025ANG 25356.84254127  .00012927  00000+0  39137-2 0  9990", "line2": "2 30625  98.9265 313.2551 0048264 272.7745  86.7919 14.41747552968389"}}, "geometry": {"type": "Point", "coordinates": [-46.196156255455215, 5.265558928640645]}}, {"type": "Feature", "properties": {"norad_id": 30628, "name": "FENGYUN 1C DEB", "group": "fengyun-1c-debris", "lat": 78.58047227837262, "lon": -139.0560609434542, "alt_km": 664.673773158841, "timestamp": "2025-12-24T03:53:29.924743+00:00", "meta": {"OBJECT_NAME": "FENGYUN 1C DEB", "OBJECT_ID": "1999-025ANK", "EPOCH": "2025-12-23T17:42:22.043232", "MEAN_MOTION": 14.69354016, "ECCENTRICITY": 0.0021828, "INCLINATION": 99.3407, "RA_OF_ASC_NODE": 275.0336, "ARG_OF_PERICENTER": 210.4518, "MEAN_ANOMALY": 149.5417, "EPHEMERIS_TYPE": 0, "CLASSIFICATION_TYPE": "U", "NORAD_CAT_ID": 30628, "ELEMENT_SET_NO": 999, "REV_AT_EPOCH": 98632, "BSTAR": 0.0025201, "MEAN_MOTION_DOT": 0.00014915, "MEAN_MOTION_DDOT": 0}, "tle": {"line1": "1 30628U 99025ANK 25357.73775513  .00014915  00000+0  25201-2 0  9995", "line2": "2 30628  99.3407 275.0336 0021828 210.4518 149.5417 14.69354016986329"}}, "geometry": {"type": "Point", "coordinates": [-139.0560609434542, 78.58047227837262]}}, {"type": "Feature", "properties": {"norad_id": 30629, "name": "FENGYUN 1C DEB", "group": "fengyun-1c-debris", "lat": -25.213131302226053, "lon": -88.99931837310886, "alt_km": 694.7377391060509, "timestamp": "2025-12-24T03:53:29.924753+00:00", "meta": {"OBJECT_NAME": "FENGYUN 1C DEB", "OBJECT_ID": "1999-025ANL", "EPOCH": "2025-12-23T12:44:01.267008", "MEAN_MOTION": 14.59841915, "ECCENTRICITY": 0.0007493, "INCLINATION": 99.2511, "RA_OF_ASC_NODE": 94.6982, "ARG_OF_PERICENTER": 174.706, "MEAN_ANOMALY": 313.3591, "EPHEMERIS_TYPE": 0, "CLASSIFICATION_TYPE": "U", "NORAD_CAT_ID": 30629, "ELEMENT_SET_NO": 999, "REV_AT_EPOCH": 98047, "BSTAR": 0.0029502, "MEAN_MOTION_DOT": 0.00014085, "MEAN_MOTION_DDOT": 0}, "tle": {"line1": "1 30629U 99025ANL 25357.53057022  .00014085  00000+0  29502-2 0  9998", "line2": "2 30629  99.2511  94.6982 0007493 174.7060 313.3591 14.59841915980475"}}, "geometry": {"type": "Point", "coordinates": [-88.99931837310886, -25.213131302226053]}}]}